[{"OBJECT_NAME":"ONEWEB-0720","OBJECT_ID":"2023-029AR","EPOCH":"2025-08-14T10:40:13.481472","MEAN_MOTION":13.19724909,"ECCENTRICITY":0.0001863,"INCLINATION":87.9247,"RA_OF_ASC_NODE":5.9707,"ARG_OF_PERICENTER":82.9182,"MEAN_ANOMALY":277.2162,"EPHEMERIS_TYPE":0,"CLASSIFICATION_TYPE":"U","NORAD_CAT_ID":55835,"ELEMENT_SET_NO":999,"REV_AT_EPOCH":11838,"BSTAR":0.00021926,"MEAN_MOTION_DOT":1.01e-6,"MEAN_MOTION_DDOT":0},{"OBJECT_NAME":"ONEWEB-0537","OBJECT_ID":"2023-043A","EPOCH":"2025-08-14T11:18:03.072096","MEAN_MOTION":13.16590183,"ECCENTRICITY":0.0001851,"INCLINATION":87.9038,"RA_OF_ASC_NODE":289.9001,"ARG_OF_PERICENTER":103.1143,"MEAN_ANOMALY":257.0195,"EPHEMERIS_TYPE":0,"CLASSIFICATION_TYPE":"U","NORAD_CAT_ID":56046,"ELEMENT_SET_NO":999,"REV_AT_EPOCH":11860,"BSTAR":7.3458e-5,"MEAN_MOTION_DOT":4.1e-7,"MEAN_MOTION_DDOT":0},{"OBJECT_NAME":"ONEWEB-0538","OBJECT_ID":"2023-043B","EPOCH":"2025-08-14T11:08:55.830912","MEAN_MOTION":13.1659443,"ECCENTRICITY":0.0001761,"INCLINATION":87.9026,"RA_OF_ASC_NODE":289.9159,"ARG_OF_PERICENTER":94.9019,"MEAN_ANOMALY":265.2313,"EPHEMERIS_TYPE":0,"CLASSIFICATION_TYPE":"U","NORAD_CAT_ID":56047,"ELEMENT_SET_NO":999,"REV_AT_EPOCH":11861,"BSTAR":0.000363,"MEAN_MOTION_DOT":1.52e-6,"MEAN_MOTION_DDOT":0},{"OBJECT_NAME":"ONEWEB-0546","OBJECT_ID":"2023-043C","EPOCH":"2025-08-14T10:50:41.123040","MEAN_MOTION":13.16594523,"ECCENTRICITY":0.0001924,"INCLINATION":87.9037,"RA_OF_ASC_NODE":289.8976,"ARG_OF_PERICENTER":117.875,"MEAN_ANOMALY":242.2576,"EPHEMERIS_TYPE":0,"CLASSIFICATION_TYPE":"U","NORAD_CAT_ID":56048,"ELEMENT_SET_NO":999,"REV_AT_EPOCH":11860,"BSTAR":-0.00013059,"MEAN_MOTION_DOT":-3.7e-7,"MEAN_MOTION_DDOT":0},{"OBJECT_NAME":"ONEWEB-0547","OBJECT_ID":"2023-043D","EPOCH":"2025-08-14T10:50:46.675104","MEAN_MOTION":13.21825796,"ECCENTRICITY":0.0001865,"INCLINATION":87.9258,"RA_OF_ASC_NODE":305.1774,"ARG_OF_PERICENTER":93.3207,"MEAN_ANOMALY":266.814,"EPHEMERIS_TYPE":0,"CLASSIFICATION_TYPE":"U","NORAD_CAT_ID":56049,"ELEMENT_SET_NO":999,"REV_AT_EPOCH":11770,"BSTAR":5.1303e-5,"MEAN_MOTION_DOT":3.4e-7,"MEAN_MOTION_DDOT":0},{"OBJECT_NAME":"ONEWEB-0548","OBJECT_ID":"2023-043E","EPOCH":"2025-08-14T11:27:10.064448","MEAN_MOTION":13.16592698,"ECCENTRICITY":0.0002507,"INCLINATION":87.9023,"RA_OF_ASC_NODE":289.9206,"ARG_OF_PERICENTER":96.9191,"MEAN_ANOMALY":263.2226,"EPHEMERIS_TYPE":0,"CLASSIFICATION_TYPE":"U","NORAD_CAT_ID":56050,"ELEMENT_SET_NO":999,"REV_AT_EPOCH":11860,"BSTAR":0.00037867,"MEAN_MOTION_DOT":1.58e-6,"MEAN_MOTION_DDOT":0},{"OBJECT_NAME":"ONEWEB-0549","OBJECT_ID":"2023-043F","EPOCH":"2025-08-14T12:27:17.144352","MEAN_MOTION":13.21825146,"ECCENTRICITY":0.0001798,"INCLINATION":87.926,"RA_OF_ASC_NODE":305.1786,"ARG_OF_PERICENTER":91.3825,"MEAN_ANOMALY":268.7515,"EPHEMERIS_TYPE":0,"CLASSIFICATION_TYPE":"U","NORAD_CAT_ID":56051,"ELEMENT_SET_NO":999,"REV_AT_EPOCH":11771,"BSTAR":-1.6859e-5,"MEAN_MOTION_DOT":6.0e-8,"MEAN_MOTION_DDOT":0},{"OBJECT_NAME":"ONEWEB-0550","OBJECT_ID":"2023-043G","EPOCH":"2025-08-14T12:09:07.566912","MEAN_MOTION":13.21826253,"ECCENTRICITY":0.0002164,"INCLINATION":87.926,"RA_OF_ASC_NODE":305.1749,"ARG_OF_PERICENTER":101.0221,"MEAN_ANOMALY":259.1157,"EPHEMERIS_TYPE":0,"CLASSIFICATION_TYPE":"U","NORAD_CAT_ID":56052,"ELEMENT_SET_NO":999,"REV_AT_EPOCH":11771,"BSTAR":1.577e-5,"MEAN_MOTION_DOT":2.0e-7,"MEAN_MOTION_DDOT":0},{"OBJECT_NAME":"ONEWEB-0551","OBJECT_ID":"2023-043H","EPOCH":"2025-08-14T11:48:36.788544","MEAN_MOTION":13.1554824,"ECCENTRICITY":0.0001854,"INCLINATION":87.9077,"RA_OF_ASC_NODE":320.412,"ARG_OF_PERICENTER":91.8963,"MEAN_ANOMALY":268.238,"EPHEMERIS_TYPE":0,"CLASSIFICATION_TYPE":"U","NORAD_CAT_ID":56053,"ELEMENT_SET_NO":999,"REV_AT_EPOCH":11607,"BSTAR":0.00034438,"MEAN_MOTION_DOT":1.42e-6,"MEAN_MOTION_DDOT":0},{"OBJECT_NAME":"ONEWEB-0552","OBJECT_ID":"2023-043J","EPOCH":"2025-08-14T12:00:01.918080","MEAN_MOTION":13.21824848,"ECCENTRICITY":0.0002151,"INCLINATION":87.9261,"RA_OF_ASC_NODE":305.185,"ARG_OF_PERICENTER":90.3719,"MEAN_ANOMALY":269.7661,"EPHEMERIS_TYPE":0,"CLASSIFICATION_TYPE":"U","NORAD_CAT_ID":56054,"ELEMENT_SET_NO":999,"REV_AT_EPOCH":11771,"BSTAR":6.2277e-5,"MEAN_MOTION_DOT":3.9e-7,"MEAN_MOTION_DDOT":0},{"OBJECT_NAME":"ONEWEB-0553","OBJECT_ID":"2023-043K","EPOCH":"2025-08-14T10:59:47.985792","MEAN_MOTION":13.16593037,"ECCENTRICITY":0.0002098,"INCLINATION":87.9027,"RA_OF_ASC_NODE":289.9156,"ARG_OF_PERICENTER":108.1629,"MEAN_ANOMALY":251.9731,"EPHEMERIS_TYPE":0,"CLASSIFICATION_TYPE":"U","NORAD_CAT_ID":56055,"ELEMENT_SET_NO":999,"REV_AT_EPOCH":11861,"BSTAR":0.00016168,"MEAN_MOTION_DOT":7.5e-7,"MEAN_MOTION_DDOT":0},{"OBJECT_NAME":"ONEWEB-0554","OBJECT_ID":"2023-043L","EPOCH":"2025-08-14T10:41:33.296928","MEAN_MOTION":13.16595594,"ECCENTRICITY":0.0002302,"INCLINATION":87.9024,"RA_OF_ASC_NODE":289.9443,"ARG_OF_PERICENTER":98.4164,"MEAN_ANOMALY":261.7228,"EPHEMERIS_TYPE":0,"CLASSIFICATION_TYPE":"U","NORAD_CAT_ID":56056,"ELEMENT_SET_NO":999,"REV_AT_EPOCH":11859,"BSTAR":-8.0228e-5,"MEAN_MOTION_DOT":-1.8e-7,"MEAN_MOTION_DDOT":0},{"OBJECT_NAME":"ONEWEB-0555","OBJECT_ID":"2023-043M","EPOCH":"2025-08-14T09:46:51.608928","MEAN_MOTION":13.16594877,"ECCENTRICITY":0.0002068,"INCLINATION":87.9029,"RA_OF_ASC_NODE":289.9201,"ARG_OF_PERICENTER":113.227,"MEAN_ANOMALY":246.9079,"EPHEMERIS_TYPE":0,"CLASSIFICATION_TYPE":"U","NORAD_CAT_ID":56057,"ELEMENT_SET_NO":999,"REV_AT_EPOCH":11859,"BSTAR":0.00028108,"MEAN_MOTION_DOT":1.2e-6,"MEAN_MOTION_DDOT":0},{"OBJECT_NAME":"ONEWEB-0557","OBJECT_ID":"2023-043N","EPOCH":"2025-08-14T10:07:21.964800","MEAN_MOTION":13.1659533,"ECCENTRICITY":0.0003161,"INCLINATION":87.9023,"RA_OF_ASC_NODE":289.9373,"ARG_OF_PERICENTER":112.5712,"MEAN_ANOMALY":247.5754,"EPHEMERIS_TYPE":0,"CLASSIFICATION_TYPE":"U","NORAD_CAT_ID":56058,"ELEMENT_SET_NO":999,"REV_AT_EPOCH":11859,"BSTAR":-4.0284e-5,"MEAN_MOTION_DOT":-3.0e-8,"MEAN_MOTION_DDOT":0},{"OBJECT_NAME":"ONEWEB-0558","OBJECT_ID":"2023-043P","EPOCH":"2025-08-14T11:50:58.030080","MEAN_MOTION":13.2182726,"ECCENTRICITY":0.0001731,"INCLINATION":87.926,"RA_OF_ASC_NODE":305.1822,"ARG_OF_PERICENTER":86.8769,"MEAN_ANOMALY":273.2563,"EPHEMERIS_TYPE":0,"CLASSIFICATION_TYPE":"U","NORAD_CAT_ID":56059,"ELEMENT_SET_NO":999,"REV_AT_EPOCH":11772,"BSTAR":0.00017676,"MEAN_MOTION_DOT":8.6e-7,"MEAN_MOTION_DDOT":0},{"OBJECT_NAME":"ONEWEB-0559","OBJECT_ID":"2023-043Q","EPOCH":"2025-08-14T11:35:03.305760","MEAN_MOTION":13.21824615,"ECCENTRICITY":0.0002097,"INCLINATION":87.9258,"RA_OF_ASC_NODE":305.1764,"ARG_OF_PERICENTER":87.6097,"MEAN_ANOMALY":272.5277,"EPHEMERIS_TYPE":0,"CLASSIFICATION_TYPE":"U","NORAD_CAT_ID":56060,"ELEMENT_SET_NO":999,"REV_AT_EPOCH":11773,"BSTAR":0.00022118,"MEAN_MOTION_DOT":1.04e-6,"MEAN_MOTION_DDOT":0},{"OBJECT_NAME":"ONEWEB-0566","OBJECT_ID":"2023-043R","EPOCH":"2025-08-14T05:58:57.634752","MEAN_MOTION":13.21824681,"ECCENTRICITY":0.0001902,"INCLINATION":87.9259,"RA_OF_ASC_NODE":305.2207,"ARG_OF_PERICENTER":89.2186,"MEAN_ANOMALY":270.9165,"EPHEMERIS_TYPE":0,"CLASSIFICATION_TYPE":"U","NORAD_CAT_ID":56061,"ELEMENT_SET_NO":999,"REV_AT_EPOCH":11768,"BSTAR":0.00022036,"MEAN_MOTION_DOT":1.04e-6,"MEAN_MOTION_DDOT":0}]
