ONEWEB-0720             
1 55835U 23029AR  25226.44460048  .00000101  00000+0  21926-3 0  9993
2 55835  87.9247   5.9707 0001863  82.9182 277.2162 13.19724909118384
ONEWEB-0537             
1 56046U 23043A   25226.47086889  .00000041  00000+0  73458-4 0  9995
2 56046  87.9038 289.9001 0001851 103.1143 257.0195 13.16590183118607
ONEWEB-0538             
1 56047U 23043B   25226.46453508  .00000152  00000+0  36300-3 0  9998
2 56047  87.9026 289.9159 0001761  94.9019 265.2313 13.16594430118611
ONEWEB-0546             
1 56048U 23043C   25226.45186485 -.00000037  00000+0 -13059-3 0  9995
2 56048  87.9037 289.8976 0001924 117.8750 242.2576 13.16594523118606
ONEWEB-0547             
1 56049U 23043D   25226.45192911  .00000034  00000+0  51303-4 0  9997
2 56049  87.9258 305.1774 0001865  93.3207 266.8140 13.21825796117703
ONEWEB-0548             
1 56050U 23043E   25226.47719982  .00000158  00000+0  37867-3 0  9999
2 56050  87.9023 289.9206 0002507  96.9191 263.2226 13.16592698118601
ONEWEB-0549             
1 56051U 23043F   25226.51894843  .00000006  00000+0 -16859-4 0  9997
2 56051  87.9260 305.1786 0001798  91.3825 268.7515 13.21825146117718
ONEWEB-0550             
1 56052U 23043G   25226.50633758  .00000020  00000+0  15770-4 0  9999
2 56052  87.9260 305.1749 0002164 101.0221 259.1157 13.21826253117711
ONEWEB-0551             
1 56053U 23043H   25226.49209246  .00000142  00000+0  34438-3 0  9995
2 56053  87.9077 320.4120 0001854  91.8963 268.2380 13.15548240116072
ONEWEB-0552             
1 56054U 23043J   25226.50002220  .00000039  00000+0  62277-4 0  9999
2 56054  87.9261 305.1850 0002151  90.3719 269.7661 13.21824848117710
ONEWEB-0553             
1 56055U 23043K   25226.45819428  .00000075  00000+0  16168-3 0  9997
2 56055  87.9027 289.9156 0002098 108.1629 251.9731 13.16593037118615
ONEWEB-0554             
1 56056U 23043L   25226.44552427 -.00000018  00000+0 -80228-4 0  9998
2 56056  87.9024 289.9443 0002302  98.4164 261.7228 13.16595594118592
ONEWEB-0555             
1 56057U 23043M   25226.40754177  .00000120  00000+0  28108-3 0  9991
2 56057  87.9029 289.9201 0002068 113.2270 246.9079 13.16594877118595
ONEWEB-0557             
1 56058U 23043N   25226.42178200 -.00000003  00000+0 -40284-4 0  9993
2 56058  87.9023 289.9373 0003161 112.5712 247.5754 13.16595330118590
ONEWEB-0558             
1 56059U 23043P   25226.49372720  .00000086  00000+0  17676-3 0  9991
2 56059  87.9260 305.1822 0001731  86.8769 273.2563 13.21827260117724
ONEWEB-0559             
1 56060U 23043Q   25226.48267715  .00000104  00000+0  22118-3 0  9997
2 56060  87.9258 305.1764 0002097  87.6097 272.5277 13.21824615117733
ONEWEB-0566             
1 56061U 23043R   25226.24927818  .00000104  00000+0  22036-3 0  9998
2 56061  87.9259 305.2207 0001902  89.2186 270.9165 13.21824681117684
